; Print Lab local G-code fixture
G21
G90
M82
G92 E0
;LAYER:0
G0 Z0.20 F900
G0 X40 Y40 F5000
G1 X180 Y40 E4.0 F1200
G1 X180 Y180 E8.0
G1 X40 Y180 E12.0
G1 X40 Y40 E16.0
;LAYER:1
G0 Z0.40
G1 X180 Y40 E20.0
G1 X180 Y180 E24.0
G1 X40 Y180 E28.0
G1 X40 Y40 E32.0
;LAYER:2
G0 Z0.60
G1 X180 Y40 E36.0
G1 X180 Y180 E40.0
G1 X40 Y180 E44.0
G1 X40 Y40 E48.0
;LAYER:3
G0 Z0.80
G1 X180 Y40 E52.0
G1 X180 Y180 E56.0
G1 X40 Y180 E60.0
G1 X40 Y40 E64.0
;LAYER:4
G0 Z1.00
G1 X180 Y40 E68.0
G1 X180 Y180 E72.0
G1 X40 Y180 E76.0
G1 X40 Y40 E80.0
;LAYER:5
G0 Z1.20
G1 X180 Y40 E84.0
G1 X180 Y180 E88.0
G1 X40 Y180 E92.0
G1 X40 Y40 E96.0
;LAYER:6
G0 Z1.40
G1 X180 Y40 E100.0
G1 X180 Y180 E104.0
G1 X40 Y180 E108.0
G1 X40 Y40 E112.0
;LAYER:7
G0 Z1.60
G1 X180 Y40 E116.0
G1 X180 Y180 E120.0
G1 X40 Y180 E124.0
G1 X40 Y40 E128.0
;LAYER:8
G0 Z1.80
G1 X180 Y40 E132.0
G1 X180 Y180 E136.0
G1 X40 Y180 E140.0
G1 X40 Y40 E144.0
;LAYER:9
G0 Z2.00
G1 X180 Y40 E148.0
G1 X180 Y180 E152.0
G1 X40 Y180 E156.0
G1 X40 Y40 E160.0
M104 S0
M140 S0
